[{"OBJECT_NAME":"KOSEN-1","OBJECT_ID":"2021-102H","EPOCH":"2026-03-09T22:29:54.100608","MEAN_MOTION":15.25323573,"ECCENTRICITY":0.00138659,"INCLINATION":97.3334,"RA_OF_ASC_NODE":113.0569,"ARG_OF_PERICENTER":191.9191,"MEAN_ANOMALY":168.1721,"EPHEMERIS_TYPE":0,"CLASSIFICATION_TYPE":"U","NORAD_CAT_ID":49402,"ELEMENT_SET_NO":999,"REV_AT_EPOCH":23888,"BSTAR":0.00040411561,"MEAN_MOTION_DOT":0.00010142,"MEAN_MOTION_DDOT":0},{"OBJECT_NAME":"STARLINK-36080","OBJECT_ID":"2025-278L","EPOCH":"2026-03-09T13:16:27.554880","MEAN_MOTION":15.27585483,"ECCENTRICITY":0.0002022,"INCLINATION":43.0031,"RA_OF_ASC_NODE":115.5345,"ARG_OF_PERICENTER":263.5318,"MEAN_ANOMALY":96.5303,"EPHEMERIS_TYPE":0,"CLASSIFICATION_TYPE":"U","NORAD_CAT_ID":66801,"ELEMENT_SET_NO":999,"REV_AT_EPOCH":1518,"BSTAR":0.00075479,"MEAN_MOTION_DOT":0.0002057,"MEAN_MOTION_DDOT":0}]
